[Satellite]
VERSION=1.1
NAME=NUDATSat
NICKNAME=NUDATSat
TLE1=1 42787U 17036Y   22342.56345458  .00034560  00000+0  80261-3 0  9995
TLE2=2 42787  97.1794  24.8978 0008408  54.0317 306.1721 15.42248684303847
STATUS=0
